      2.10          N: GNSS NAV DATA                        RINEX VERSION / TYPE
fic2rin                                 11/22/2024 00:59:02 PGM / RUN BY / DATE
                                                            END OF HEADER
13 24 11 21  6  0  0.0  .686884857714D-03  .147792889038D-11  .000000000000D+00
     .133000000000D+03 -.755312500000D+02  .400052378073D-08 -.198462570507D+01
    -.382959842682D-05  .878371042199D-02  .910647213459D-05  .515369211006D+04
     .367200000000D+06  .117346644402D-06  .112581318054D+01 -.100582838058D-06
     .972297323675D+00  .210343750000D+03  .973949132274D+00 -.758781606300D-08
     .155006456641D-09  .100000000000D+01  .234100000000D+04  .000000000000D+00
     .240000000000D+01  .000000000000D+00 -.116415321827D-07  .133000000000D+03
     .360000000000D+06  .400000000000D+01
9  24 11 21  6  0  0.0  .453166197985D-03  .170530256582D-10  .000000000000D+00
     .100000000000D+03 -.877500000000D+02  .440911222865D-08 -.113667781229D+01
    -.458769500256D-05  .318733905442D-02  .910647213459D-05  .515356526566D+04
     .367200000000D+06 -.353902578354D-07  .957223809311D+00  .279396772385D-07
     .959866806351D+00  .202500000000D+03  .201457763319D+01 -.797247494272D-08
     .871464871438D-10  .100000000000D+01  .234100000000D+04  .000000000000D+00
     .240000000000D+01  .000000000000D+00  .465661287308D-09  .100000000000D+03
     .360000000000D+06  .400000000000D+01
8  24 11 21  6  0  0.0  .419135671109D-03  .100044417195D-10  .000000000000D+00
     .189000000000D+03  .643750000000D+02  .468090926437D-08 -.167378574202D+01
     .299140810966D-05  .999405886978D-02  .800378620625D-05  .515371064377D+04
     .367200000000D+06  .838190317154D-07 -.219653127162D+01 -.130385160446D-06
     .950519359621D+00  .218218750000D+03  .381161557366D+00 -.797068915405D-08
    -.346443002170D-10  .100000000000D+01  .234100000000D+04  .000000000000D+00
     .240000000000D+01  .000000000000D+00  .465661287308D-08  .189000000000D+03
     .360000000000D+06  .400000000000D+01
23 24 11 21  6  0  0.0  .367632601410D-03  .784439180279D-11  .000000000000D+00
     .960000000000D+02 -.513437500000D+02  .419053169532D-08  .145150126177D+01
    -.255554914474D-05  .490915752016D-02  .415369868279D-05  .515362641907D+04
     .367200000000D+06  .931322574615D-07 -.906902840372D-01  .931322574615D-07
     .982093747278D+00  .311125000000D+03 -.289998810476D+01 -.810855203945D-08
    -.145006040084D-09  .100000000000D+01  .234100000000D+04  .000000000000D+00
     .240000000000D+01  .000000000000D+00 -.838190317154D-08  .352000000000D+03
     .360000000000D+06  .400000000000D+01
14 24 11 21  6  0  0.0  .544235575944D-03  .795807864051D-11  .000000000000D+00
     .260000000000D+02  .153437500000D+02  .500377985609D-08  .952932380087D+00
     .784173607826D-06  .502862152644D-02  .725500285625D-05  .515369344330D+04
     .367200000000D+06 -.353902578354D-07  .309892809317D+01  .117346644402D-06
     .944969118648D+00  .231718750000D+03 -.285889493487D+01 -.816891169653D-08
    -.218580533328D-09  .100000000000D+01  .234100000000D+04  .000000000000D+00
     .240000000000D+01  .000000000000D+00 -.791624188423D-08  .794000000000D+03
     .360000000000D+06  .400000000000D+01
11 24 11 21  6  0  0.0 -.750888604671D-03 -.136424205266D-11  .000000000000D+00
     .116000000000D+03  .638125000000D+02  .448947271884D-08 -.257942897628D+01
     .338256359100D-05  .176797725726D-02  .466592609882D-05  .515357903481D+04
     .367200000000D+06  .689178705215D-07 -.106485729163D+01 -.104308128357D-06
     .965932219777D+00  .290687500000D+03 -.239362581228D+01 -.821819946385D-08
     .103218585183D-09  .100000000000D+01  .234100000000D+04  .000000000000D+00
     .240000000000D+01  .000000000000D+00 -.884756445885D-08  .628000000000D+03
     .360000000000D+06  .400000000000D+01
12 24 11 21  5 59 28.0 -.553456600755D-03 -.250111042988D-11  .000000000000D+00
     .550000000000D+02  .172812500000D+02  .461804950316D-08  .112106895476D+01
     .786036252975D-06  .884273252450D-02  .738911330700D-05  .515378813553D+04
     .367168000000D+06 -.141561031342D-06 -.313704841896D+01 -.782310962677D-07
     .961659439833D+00  .237281250000D+03  .145798963407D+01 -.811962392921D-08
    -.184293390845D-09  .100000000000D+01  .234100000000D+04  .000000000000D+00
     .240000000000D+01  .000000000000D+00 -.125728547573D-07  .550000000000D+02
     .361380000000D+06  .400000000000D+01
10 24 11 21  5 59 44.0 -.203912612051D-03 -.146656020661D-10  .000000000000D+00
     .290000000000D+02 -.518437500000D+02  .409338479162D-08  .280741528069D+00
    -.262074172497D-05  .997664360330D-02  .406987965107D-05  .515368681145D+04
     .367184000000D+06 -.316649675369D-07 -.608555502837D-01  .409781932831D-07
     .986978774530D+00  .312187500000D+03 -.235681144517D+01 -.815105380982D-08
    -.200722646618D-09  .100000000000D+01  .234100000000D+04  .000000000000D+00
     .240000000000D+01  .000000000000D+00  .232830643654D-08  .290000000000D+02
     .362490000000D+06  .400000000000D+01
11 24 11 21  6 44 32.0 -.750892329961D-03 -.136424205266D-11  .000000000000D+00
     .117000000000D+03  .637187500000D+02  .450197323954D-08 -.218970533537D+01
     .337883830070D-05  .176803325303D-02  .466592609882D-05  .515357888222D+04
     .369872000000D+06  .875443220139D-07 -.106487949287D+01 -.186264514923D-07
     .965932550396D+00  .291375000000D+03 -.239359408744D+01 -.822248535666D-08
     .154649298907D-09  .100000000000D+01  .234100000000D+04  .000000000000D+00
     .240000000000D+01  .000000000000D+00 -.884756445885D-08  .629000000000D+03
     .362700000000D+06  .400000000000D+01
21 24 11 21  5 59 28.0  .969432294369D-04 -.909494701773D-12  .000000000000D+00
     .800000000000D+01  .773437500000D+02  .457019036677D-08 -.186865063607D+01
     .399537384510D-05  .256113425130D-01  .574067234993D-05  .515363605690D+04
     .367168000000D+06 -.573694705963D-06 -.120454575506D+01 -.163912773132D-06
     .960767421145D+00  .279312500000D+03 -.490967633950D+00 -.822748556494D-08
     .245010205659D-09  .100000000000D+01  .234100000000D+04  .000000000000D+00
     .240000000000D+01  .000000000000D+00 -.102445483208D-07  .800000000000D+01
     .363120000000D+06  .400000000000D+01
18 24 11 21  7 14 40.0 -.660512596369D-03 -.227373675443D-12  .000000000000D+00
     .870000000000D+02  .556250000000D+02  .429053586090D-08 -.305705625588D+01
     .298209488392D-05  .480425101705D-02  .525265932083D-05  .515372584343D+04
     .371680000000D+06 -.819563865662D-07 -.109246036433D+01 -.391155481339D-07
     .974149168766D+00  .288406250000D+03 -.294443232697D+01 -.797390357366D-08
     .143577409147D-09  .100000000000D+01  .234100000000D+04  .000000000000D+00
     .240000000000D+01  .000000000000D+00 -.838190317154D-08  .870000000000D+02
     .364500000000D+06  .400000000000D+01
22 24 11 21  5 59 44.0 -.809780322015D-04 -.284217094304D-11  .000000000000D+00
     .330000000000D+02  .195312500000D+02  .467698052930D-08 -.120463099344D+01
     .104308128357D-05  .137553733075D-01  .799819827080D-05  .515367808723D+04
     .367184000000D+06 -.249594449997D-06 -.311610961104D+01  .745058059692D-08
     .960400369147D+00  .230875000000D+03 -.108831118634D+01 -.815212528303D-08
    -.885751180806D-10  .100000000000D+01  .234100000000D+04  .000000000000D+00
     .240000000000D+01  .000000000000D+00 -.111758708954D-07  .330000000000D+02
     .364950000000D+06  .400000000000D+01
13 24 11 21  5 59 28.0  .686887186021D-03  .159161572810D-11  .000000000000D+00
     .370000000000D+02 -.755312500000D+02  .400052378073D-08 -.198929292869D+01
    -.382959842682D-05  .878370716237D-02  .910647213459D-05  .515369213486D+04
     .367168000000D+06  .117346644402D-06  .112581342338D+01 -.100582838058D-06
     .972297297342D+00  .210343750000D+03  .973948839690D+00 -.758781606300D-08
     .155006456641D-09  .100000000000D+01  .234100000000D+04  .000000000000D+00
     .240000000000D+01  .000000000000D+00 -.116415321827D-07  .370000000000D+02
     .366690000000D+06  .400000000000D+01
21 24 11 21  7 59 28.0  .969362445176D-04 -.909494701773D-12  .000000000000D+00
     .290000000000D+02  .544375000000D+02  .466162274673D-08 -.818559821559D+00
     .261515378952D-05  .256116957171D-01  .495836138725D-05  .515363064384D+04
     .374368000000D+06 -.173225998878D-06 -.120460691088D+01 -.420957803726D-06
     .960769785221D+00  .287781250000D+03 -.490850220145D+00 -.840963600938D-08
     .375015620906D-09  .100000000000D+01  .234100000000D+04  .000000000000D+00
     .240000000000D+01  .000000000000D+00 -.102445483208D-07  .290000000000D+02
     .367200000000D+06  .400000000000D+01
13 24 11 21  7 59 28.0  .686898361892D-03  .159161572810D-11  .000000000000D+00
     .470000000000D+02 -.772812500000D+02  .419588906134D-08 -.939146442830D+00
    -.402331352234D-05  .878329656553D-02  .930577516556D-05  .515369172668D+04
     .374368000000D+06  .670552253723D-07  .112575875413D+01  .212341547012D-06
     .972296861393D+00  .204718750000D+03  .973968014157D+00 -.786497046473D-08
     .396445084958D-10  .100000000000D+01  .234100000000D+04  .000000000000D+00
     .240000000000D+01  .000000000000D+00 -.116415321827D-07  .470000000000D+02
     .367200000000D+06  .400000000000D+01
12 24 11 21  7 59 28.0 -.553474295884D-03 -.250111042988D-11  .000000000000D+00
     .950000000000D+02  .171875000000D+02  .448697261471D-08  .217121694011D+01
     .815838575363D-06  .884278130252D-02  .737421214581D-05  .515378752136D+04
     .374368000000D+06  .160187482834D-06 -.313710582971D+01 -.894069671631D-07
     .961659534922D+00  .234906250000D+03  .145795298943D+01 -.781639701288D-08
    -.178936024832D-09  .100000000000D+01  .234100000000D+04  .000000000000D+00
     .240000000000D+01  .000000000000D+00 -.125728547573D-07  .950000000000D+02
     .367200000000D+06  .400000000000D+01
